{"type":"FeatureCollection","features":[{"type":"Feature","properties":{"name":"Kamrup Metropolitan","state":"Assam","lgd_code":"291"},"geometry":{"type":"Polygon","coordinates":[[[91.55,26.0],[91.9,26.0],[91.9,26.3],[91.55,26.3],[91.55,26.0]]]}},{"type":"Feature","properties":{"name":"Golaghat","state":"Assam","lgd_code":"298"},"geometry":{"type":"Polygon","coordinates":[[[93.55,26.25],[94.2,26.25],[94.2,26.75],[93.55,26.75],[93.55,26.25]]]}},{"type":"Feature","properties":{"name":"Sivasagar","state":"Assam","lgd_code":"313"},"geometry":{"type":"Polygon","coordinates":[[[94.3,26.85],[94.9,26.85],[94.9,27.4],[94.3,27.4],[94.3,26.85]]]}}]}
